ONEWEB-0528             
1 54643U 22166B   23236.14447211  .00000026  00000+0  31340-4 0  9991
2 54643  87.9183  88.6798 0001782  87.5545 272.5793 13.21827260 35733
ONEWEB-0539             
1 54644U 22166C   23236.56080501  .00000036  00000+0  55603-4 0  9992
2 54644  87.9184  88.5965 0001456  87.5651 272.5650 13.21824899 35788
ONEWEB-0540             
1 54645U 22166D   23237.08437075  .00000057  00000+0  10569-3 0  9997
2 54645  87.9187  88.5159 0001526  86.1248 274.0060 13.21826624 36312
ONEWEB-0542             
1 54646U 22166E   23237.09910199  .00000191  00000+0  43155-3 0  9998
2 54646  87.9185  88.4888 0001316  69.9156 290.2119 13.21825940 36318
ONEWEB-0545             
1 54647U 22166F   23236.15707637  .00000088  00000+0  18175-3 0  9995
2 54647  87.9186  88.7166 0001108  91.6750 268.4510 13.21827919 35693
ONEWEB-0580             
1 54648U 22166G   23236.51035305  .00000049  00000+0  87883-4 0  9992
2 54648  87.9183  88.6031 0001408  63.8876 296.2402 13.21825822 35784
ONEWEB-0582             
1 54649U 22166H   23237.08016148  .00000130  00000+0  28340-3 0  9993
2 54649  87.9185  88.5261 0001551  94.6488 265.4824 13.21824450 36302
ONEWEB-0583             
1 54650U 22166J   23237.09279467  .00011919  00000+0  28816-1 0  9994
2 54650  87.9179  88.5318 0002504  96.6856 263.4563 13.21764765 36322
